NORAD_CAT_ID,OBJECT_NAME,OBJECT_TYPE,EPOCH,MEAN_MOTION,ECCENTRICITY,INCLINATION,RA_OF_ASC_NODE,ARG_OF_PERICENTER,MEAN_ANOMALY,BSTAR,MEAN_MOTION_DOT,MEAN_MOTION_DDOT,TLE_LINE0,TLE_LINE1,TLE_LINE2,SEMIMAJOR_AXIS,PERIOD,APOGEE,PERIGEE,DECAYED
51136.0,STARLINK-3253,PAYLOAD,2024-06-17 12:01:35,15.08838604,0.0001219,53.2171,247.946,96.8574,263.2557,-8.6324e-06,-4.25e-06,0.0,0 STARLINK-3253,1 51136U 22005AJ  24169.50110260 -.00000425  00000-0 -86324-5 0  9993,2 51136  53.2171 247.9460 0001219  96.8574 263.2557 15.08838604133595,6917.885,95.438,540.593,538.906,0.0
51136.0,STARLINK-3253,PAYLOAD,2024-06-18 11:52:22,15.08840953,0.0001162,53.2167,243.4877,64.6156,295.4956,6.1542e-05,6.92e-06,0.0,0 STARLINK-3253,1 51136U 22005AJ  24170.49470182  .00000692  00000-0  61542-4 0  9993,2 51136  53.2167 243.4877 0001162  64.6156 295.4956 15.08840953133746,6917.877,95.437,540.546,538.939,0.0
51136.0,STARLINK-3253,PAYLOAD,2024-06-18 21:24:41,15.08842112,0.0001133,53.2165,241.704,89.6227,270.4895,2.205e-05,6.3e-07,0.0,0 STARLINK-3253,1 51136U 22005AJ  24170.89214156  .00000063  00000-0  22050-4 0  9997,2 51136  53.2165 241.7040 0001133  89.6227 270.4895 15.08842112133802,6917.874,95.437,540.523,538.955,0.0
51136.0,STARLINK-3253,PAYLOAD,2024-06-19 05:21:37,15.0883179,0.0001261,53.2172,240.2184,98.044,262.0696,6.7552e-05,7.87e-06,0.0,0 STARLINK-3253,1 51136U 22005AJ  24171.22334845  .00000787  00000-0  67552-4 0  9992,2 51136  53.2172 240.2184 0001261  98.0440 262.0696 15.08831790134982,6917.905,95.438,540.643,538.898,0.0
51136.0,STARLINK-3253,PAYLOAD,2024-06-19 11:43:09,15.08833332,0.0001272,53.2172,239.0287,97.5613,262.5523,7.2611e-05,8.68e-06,0.0,0 STARLINK-3253,1 51136U 22005AJ  24171.48830848  .00000868  00000-0  72611-4 0  9996,2 51136  53.2172 239.0287 0001272  97.5613 262.5523 15.08833332133897,6917.901,95.438,540.646,538.886,0.0
51136.0,STARLINK-3253,PAYLOAD,2024-06-20 13:09:19,15.08844966,0.0001294,53.2173,234.2709,95.6589,264.4551,9.598e-05,1.24e-05,0.0,0 STARLINK-3253,1 51136U 22005AJ  24172.54814164  .00001240  00000-0  95980-4 0  9996,2 51136  53.2173 234.2709 0001294  95.6589 264.4551 15.08844966134055,6917.865,95.437,540.625,538.835,0.0
51136.0,STARLINK-3253,PAYLOAD,2024-06-20 14:44:42,15.0884705,0.0001268,53.2169,233.9721,90.1048,270.009,0.00010878,1.444e-05,0.0,0 STARLINK-3253,1 51136U 22005AJ  24172.61437979  .00001444  00000-0  10878-3 0  9997,2 51136  53.2169 233.9721 0001268  90.1048 270.0090 15.08847050135195,6917.859,95.437,540.601,538.847,0.0
51136.0,STARLINK-3253,PAYLOAD,2024-06-20 21:06:15,15.08844142,0.0001262,53.2173,232.7808,80.3873,279.7262,1.3597e-05,-7.1e-07,0.0,0 STARLINK-3253,1 51136U 22005AJ  24172.87934360 -.00000071  00000-0  13597-4 0  9999,2 51136  53.2173 232.7808 0001262  80.3873 279.7262 15.08844142135235,6917.868,95.437,540.606,538.86,0.0
51136.0,STARLINK-3253,PAYLOAD,2024-06-21 11:24:44,15.08836441,0.0001346,53.2172,230.1043,78.8717,281.2426,2.2057e-05,6.3e-07,0.0,0 STARLINK-3253,1 51136U 22005AJ  24173.47551022  .00000063  00000-0  22057-4 0  9997,2 51136  53.2172 230.1043 0001346  78.8717 281.2426 15.08836441135322,6917.891,95.438,540.687,538.825,0.0
51136.0,STARLINK-3253,PAYLOAD,2024-06-22 12:50:54,15.08839033,0.0001442,53.2176,225.3454,75.5433,284.5719,-1.6446e-05,-5.5e-06,0.0,0 STARLINK-3253,1 51136U 22005AJ  24174.53535216 -.00000550  00000-0 -16446-4 0  9990,2 51136  53.2176 225.3454 0001442  75.5433 284.5719 15.08839033135482,6917.883,95.438,540.746,538.751,0.0
51136.0,STARLINK-3253,PAYLOAD,2024-06-23 09:30:54,15.08843147,0.0001584,53.217,221.4819,60.7483,299.3667,0.00012095,1.638e-05,0.0,0 STARLINK-3253,1 51136U 22005AJ  24175.39646561  .00001638  00000-0  12095-3 0  9992,2 51136  53.2170 221.4819 0001584  60.7483 299.3667 15.08843147135618,6917.871,95.437,540.832,538.64,0.0
51136.0,STARLINK-3253,PAYLOAD,2024-06-24 09:21:41,15.08843584,0.0001295,53.2167,217.0213,70.6838,289.4294,6.0099e-05,6.69e-06,0.0,0 STARLINK-3253,1 51136U 22005AJ  24176.39006487  .00000669  00000-0  60099-4 0  9991,2 51136  53.2167 217.0213 0001295  70.6838 289.4294 15.08843584134638,6917.869,95.437,540.63,538.839,0.0
51136.0,STARLINK-3253,PAYLOAD,2024-06-25 07:37:05,15.08838725,0.0001369,53.2171,212.8585,92.6734,267.4414,-3.6771e-05,-8.73e-06,0.0,0 STARLINK-3253,1 51136U 22005AJ  24177.31742941 -.00000873  00000-0 -36771-4 0  9995,2 51136  53.2171 212.8585 0001369  92.6734 267.4414 15.08838725135901,6917.884,95.438,540.696,538.802,0.0
51136.0,STARLINK-3253,PAYLOAD,2024-06-26 09:03:15,15.08840549,0.0001407,53.2167,208.1018,100.8241,259.2909,5.4813e-05,5.85e-06,0.0,0 STARLINK-3253,1 51136U 22005AJ  24178.37726514  .00000585  00000-0  54813-4 0  9995,2 51136  53.2167 208.1018 0001407 100.8241 259.2909 15.08840549136066,6917.879,95.438,540.717,538.77,0.0
51136.0,STARLINK-3253,PAYLOAD,2024-06-27 12:04:49,15.08836283,0.0001278,53.2158,203.0441,90.7258,269.3881,4.4014e-05,4.13e-06,0.0,0 STARLINK-3253,1 51136U 22005AJ  24179.50335144  .00000413  00000-0  44014-4 0  9998,2 51136  53.2158 203.0441 0001278  90.7258 269.3881 15.08836283136231,6917.892,95.438,540.641,538.873,0.0
51136.0,STARLINK-3253,PAYLOAD,2024-06-27 18:26:22,15.08835022,0.000127,53.2157,201.8544,90.1137,270.0001,2.6068e-05,1.27e-06,0.0,0 STARLINK-3253,1 51136U 22005AJ  24179.76831344  .00000127  00000-0  26068-4 0  9990,2 51136  53.2157 201.8544 0001270  90.1137 270.0001 15.08835022135144,6917.896,95.438,540.639,538.882,0.0
51136.0,STARLINK-3253,PAYLOAD,2024-06-28 08:44:50,15.08839435,0.000126,53.2154,199.1778,89.3196,270.794,2.938e-05,1.8e-06,0.0,0 STARLINK-3253,1 51136U 22005AJ  24180.36447204  .00000180  00000-0  29380-4 0  9995,2 51136  53.2154 199.1778 0001260  89.3196 270.7940 15.08839435135234,6917.882,95.438,540.619,538.875,0.0
51136.0,STARLINK-3253,PAYLOAD,2024-06-29 10:11:00,15.0883793,0.0001229,53.2152,194.4196,88.036,272.0773,5.4473e-05,5.79e-06,0.0,0 STARLINK-3253,1 51136U 22005AJ  24181.42431498  .00000579  00000-0  54473-4 0  9994,2 51136  53.2152 194.4196 0001229  88.0360 272.0773 15.08837930136528,6917.887,95.438,540.602,538.902,0.0
51136.0,STARLINK-3253,PAYLOAD,2024-06-29 18:07:56,15.08838059,0.0001236,53.2153,192.9329,88.2363,271.8771,5.198e-05,5.39e-06,0.0,0 STARLINK-3253,1 51136U 22005AJ  24181.75551567  .00000539  00000-0  51980-4 0  9996,2 51136  53.2153 192.9329 0001236  88.2363 271.8771 15.08838059135441,6917.886,95.438,540.606,538.896,0.0
51136.0,STARLINK-3253,PAYLOAD,2024-06-30 06:51:01,15.0883991,0.0001229,53.215,190.5536,88.5877,271.5256,7.2551e-05,8.67e-06,0.0,0 STARLINK-3253,1 51136U 22005AJ  24182.28543431  .00000867  00000-0  72551-4 0  9997,2 51136  53.2150 190.5536 0001229  88.5877 271.5256 15.08839910135528,6917.881,95.438,540.596,538.895,0.0
51136.0,STARLINK-3253,PAYLOAD,2024-06-30 17:58:43,15.08840331,0.0001243,53.2151,188.4721,88.0611,272.0524,7.0117e-05,8.28e-06,0.0,0 STARLINK-3253,1 51136U 22005AJ  24182.74911405  .00000828  00000-0  70117-4 0  9991,2 51136  53.2151 188.4721 0001243  88.0611 272.0524 15.08840331136724,6917.879,95.438,540.604,538.884,0.0
51136.0,STARLINK-3253,PAYLOAD,2024-07-01 06:41:48,15.08838417,0.0001286,53.2151,186.0936,87.8254,272.2885,4.9195e-05,4.95e-06,0.0,0 STARLINK-3253,1 51136U 22005AJ  24183.27903668  .00000495  00000-0  49195-4 0  9994,2 51136  53.2151 186.0936 0001286  87.8254 272.2885 15.08838417135670,6917.885,95.438,540.64,538.861,0.0
51136.0,STARLINK-3253,PAYLOAD,2024-07-01 17:49:30,15.0884126,0.0001308,53.2152,184.0121,87.0823,273.0318,6.587e-05,7.61e-06,0.0,0 STARLINK-3253,1 51136U 22005AJ  24183.74271419  .00000761  00000-0  65870-4 0  9992,2 51136  53.2152 184.0121 0001308  87.0823 273.0318 15.08841260135742,6917.877,95.437,540.646,538.837,0.0
51136.0,STARLINK-3253,PAYLOAD,2024-07-02 04:57:12,15.0884142,0.0001337,53.2154,181.9306,87.9185,272.196,3.9125e-05,3.35e-06,0.0,0 STARLINK-3253,1 51136U 22005AJ  24184.20639484  .00000335  00000-0  39125-4 0  9995,2 51136  53.2154 181.9306 0001337  87.9185 272.1960 15.08841420136941,6917.876,95.437,540.666,538.816,0.0
51136.0,STARLINK-3253,PAYLOAD,2024-07-02 06:32:35,15.08842654,0.0001343,53.2155,181.6329,89.7383,270.3763,4.6825e-05,4.57e-06,0.0,0 STARLINK-3253,1 51136U 22005AJ  24184.27263363  .00000457  00000-0  46825-4 0  9991,2 51136  53.2155 181.6329 0001343  89.7383 270.3763 15.08842654135828,6917.872,95.437,540.666,538.808,0.0
51136.0,STARLINK-3253,PAYLOAD,2024-07-03 04:47:59,15.08836086,0.0001376,53.216,177.47,90.5051,269.6099,1.3583e-05,-7.2e-07,0.0,0 STARLINK-3253,1 51136U 22005AJ  24185.19999873 -.00000072  00000-0  13583-4 0  9994,2 51136  53.2160 177.4700 0001376  90.5051 269.6099 15.08836086137094,6917.892,95.438,540.709,538.805,0.0
51136.0,STARLINK-3253,PAYLOAD,2024-07-03 15:55:41,15.08837235,0.0001378,53.216,175.3886,89.8762,270.2388,1.3856e-05,-6.7e-07,0.0,0 STARLINK-3253,1 51136U 22005AJ  24185.66367839 -.00000067  00000-0  13856-4 0  9994,2 51136  53.2160 175.3886 0001378  89.8762 270.2388 15.08837235136037,6917.889,95.438,540.707,538.801,0.0
51136.0,STARLINK-3253,PAYLOAD,2024-07-04 06:14:09,15.08839511,0.0001368,53.2162,172.7127,89.8699,270.245,2.2281e-05,6.7e-07,0.0,0 STARLINK-3253,1 51136U 22005AJ  24186.25983713  .00000067  00000-0  22281-4 0  9996,2 51136  53.2162 172.7127 0001368  89.8699 270.2450 15.08839511137250,6917.882,95.438,540.693,538.801,0.0
51136.0,STARLINK-3253,PAYLOAD,2024-07-05 06:04:57,15.08836517,0.0001317,53.2157,168.2531,95.6877,264.4266,3.7618e-05,3.11e-06,0.0,0 STARLINK-3253,1 51136U 22005AJ  24187.25344010  .00000311  00000-0  37618-4 0  9990,2 51136  53.2157 168.2531 0001317  95.6877 264.4266 15.08836517136274,6917.891,95.438,540.667,538.845,0.0
51136.0,STARLINK-3253,PAYLOAD,2024-07-05 15:37:16,15.08836853,0.0001308,53.2158,166.469,95.5251,264.589,4.0648e-05,3.59e-06,0.0,0 STARLINK-3253,1 51136U 22005AJ  24187.65088054  .00000359  00000-0  40648-4 0  9996,2 51136  53.2158 166.4690 0001308  95.5251 264.5890 15.08836853137465,6917.89,95.438,540.66,538.85,0.0
